STARLINK-4774           
1 56138U 23046AY  24217.88177188  .00004992  00000+0  38428-3 0  9993
2 56138  43.0066  67.2949 0001490 269.6442  90.4229 15.02545102 74695
STARLINK-5375           
1 56140U 23046BA  24217.94602961  .00001602  00000+0  13361-3 0  9999
2 56140  43.0042  66.9163 0001434 263.2289  96.8390 15.02535628 74706
STARLINK-5377           
1 56141U 23046BB  24217.99807283  .00002549  00000+0  20363-3 0  9990
2 56141  43.0033  66.4455 0001371 282.2491  77.8198 15.02544569 75252
STARLINK-5376           
1 56142U 23046BC  24217.94269743  .00003922  00000+0  30513-3 0  9993
2 56142  43.0018  66.8900 0001166 272.3709  87.7000 15.02546684 75240
STARLINK-5016           
1 56143U 23046BD  24217.85957105  .00001561  00000+0  13062-3 0  9997
2 56143  43.0025  67.1250 0001464 268.7020  91.3655 15.02540651 74690
STARLINK-5374           
1 56144U 23046BE  24217.60697444  .00003498  00000+0  27403-3 0  9993
2 56144  43.0031  68.6665 0001677 260.9526  99.1127 15.02517733 75196
STARLINK-5111           
1 56146U 23046BG  24217.86178743  .00001417  00000+0  11996-3 0  9998
2 56146  43.0041  67.1427 0001672 267.2962  92.7689 15.02538767 74694
STARLINK-5140           
1 56147U 23046BH  24217.77066293  .00001996  00000+0  16273-3 0  9990
2 56147  42.9956  29.0939 0001728 268.6755  91.3889 15.02542254 75122
STARLINK-5089           
1 56148U 23046BJ  24217.77399838  .00002423  00000+0  19432-3 0  9991
2 56148  43.0021  29.1310 0000470 274.8073  85.2716 15.02540151 75122
STARLINK-30107          
1 56287U 23056B   24217.88706839  .00001705  00000+0  14122-3 0  9994
2 56287  43.0017 131.7952 0001123 269.7415  90.3298 15.02535711 72554
STARLINK-30106          
1 56288U 23056C   24217.45490422  .00001584  00000+0  13233-3 0  9993
2 56288  43.0032 133.7358 0001205 263.5476  96.5229 15.02536815 72440
STARLINK-30095          
1 56289U 23056D   24218.08366581  .00003613  00000+0  28229-3 0  9998
2 56289  42.9997 104.5512 0001244 257.4275 102.6428 15.02546012 72247
STARLINK-30103          
1 56290U 23056E   24217.91691531  .00001664  00000+0  13819-3 0  9990
2 56290  43.0036 131.1837 0001385 263.7040  96.3644 15.02541462 72510
STARLINK-30113          
1 56291U 23056F   24217.45822900  .00002686  00000+0  21388-3 0  9991
2 56291  43.0035 133.7520 0001211 271.9470  88.1234 15.02530739 72444
STARLINK-30098          
1 56292U 23056G   24217.78063378  .00001939  00000+0  15860-3 0  9992
2 56292  43.0009 131.8628 0000838 249.0782 110.9971 15.02533448 72497
STARLINK-30090          
1 56293U 23056H   24217.90704494  .00001584  00000+0  13229-3 0  9991
2 56293  43.0032 131.9375 0001346 276.8420  83.2269 15.02537947 72508
STARLINK-30049          
1 56294U 23056J   24218.03666036  .00004075  00000+0  31649-3 0  9990
2 56294  43.0002 131.1313 0001012 256.9878 103.0851 15.02539878 71924
STARLINK-30083          
1 56295U 23056K   24218.09698795  .00002269  00000+0  18297-3 0  9991
2 56295  43.0032 104.6349 0001165 275.8865  84.1845 15.02533540 72245
STARLINK-30089          
1 56296U 23056L   24217.96428221  .00002489  00000+0  19931-3 0  9992
2 56296  43.0028  92.3237 0001197 281.3869  78.6839 15.02532578 72365
STARLINK-30086          
1 56297U 23056M   24217.81725641  .00001468  00000+0  12375-3 0  9994
2 56297  43.0013 132.0687 0000919 269.9467  90.1270 15.02532096 72495
STARLINK-30109          
1 56298U 23056N   24217.82391456  .00001917  00000+0  15699-3 0  9990
2 56298  43.0010 132.1207 0000920 269.2566  90.8171 15.02529882 72550
STARLINK-30108          
1 56299U 23056P   24217.99042148  .00000407  00000+0  45201-4 0  9996
2 56299  43.0035 118.6559 0001544 263.1736  96.8931 15.02532464 72068
STARLINK-30104          
1 56300U 23056Q   24217.77730708  .00003782  00000+0  29497-3 0  9998
2 56300  43.0005 131.8554 0000716 274.9017  85.1744 15.02528788 72553
STARLINK-30101          
1 56301U 23056R   24218.07317396  .00003281  00000+0  25780-3 0  9992
2 56301  43.0015 130.6136 0000998 272.6225  87.4503 15.02545015 71948
STARLINK-30111          
1 56302U 23056S   24218.06651061  .00004091  00000+0  31763-3 0  9990
2 56302  43.0014 130.5023 0000932 279.6042  80.4695 15.02549866 71936
STARLINK-30099          
1 56304U 23056U   24218.12965951 -.00000034  00000+0  12541-4 0  9993
2 56304  43.0023 130.1048 0001526 258.8996 101.1675 15.02541709 71946
STARLINK-30094          
1 56305U 23056V   24218.12632312  .00002798  00000+0  22213-3 0  9990
2 56305  43.0019 130.0650 0000713 244.3450 115.7318 15.02536712 71956
STARLINK-30112          
1 56306U 23056W   24217.87040848  .00004320  00000+0  33464-3 0  9992
2 56306  43.0023 131.6075 0001285 270.5290  89.5405 15.02538734 72567
STARLINK-6038           
1 56317U 23058A   24217.93517822  .00008741  00000+0  68378-3 0  9997
2 56317  97.6530 218.0124 0004211  88.9437 271.2270 15.01281049 70356
STARLINK-5954           
1 56318U 23058B   24217.93148016  .00002623  00000+0  20864-3 0  9994
2 56318  97.6527 218.0133 0005031  82.6698 277.5098 15.01264695 70494
STARLINK-6039           
1 56319U 23058C   24217.92962711 -.00000680  00000+0 -48286-4 0  9992
2 56319  97.6521 218.0111 0004995  80.5027 279.6762 15.01269157 70495
STARLINK-5988           
1 56320U 23058D   24218.00209649  .00016497  00000+0  12858-2 0  9993
2 56320  97.6530 218.0775 0004253  91.4727 268.6984 15.01259594 70362
STARLINK-5876           
1 56321U 23058E   24217.99071177  .00461544  00000+0  33808-1 0  9998
2 56321  97.6512 218.0784 0002360  95.3050 264.8444 15.01455497 70349
STARLINK-6033           
1 56322U 23058F   24217.93333150  .00003077  00000+0  24395-3 0  9991
2 56322  97.6532 218.0125 0004856  87.8264 272.3517 15.01266401 70492
STARLINK-6035           
1 56323U 23058G   24217.92592273  .00001167  00000+0  95456-4 0  9999
2 56323  97.6545 218.0116 0003819  88.0153 272.1509 15.01258514 70489
STARLINK-6034           
1 56324U 23058H   24217.92777562  .00000317  00000+0  29285-4 0  9999
2 56324  97.6544 218.0104 0004637  85.7985 274.3769 15.01260441 70497
STARLINK-5981           
1 56325U 23058J   24217.91850999  .00001118  00000+0  91637-4 0  9995
2 56325  97.6541 218.0200 0001086 105.9308 254.2036 15.01256574 70846
STARLINK-5980           
1 56326U 23058K   24217.92802065  .00001439  00000+0  11662-3 0  9993
2 56326  97.6537 218.0101 0004428  80.1213 280.0511 15.01259493 70493
STARLINK-5997           
1 56327U 23058L   24217.91319585  .00001251  00000+0  10200-3 0  9992
2 56327  97.6540 218.0262 0000847 177.7898 182.3330 15.01257120 70846
STARLINK-5992           
1 56328U 23058M   24217.92036088  .00001392  00000+0  11291-3 0  9995
2 56328  97.6541 218.0179 0001301  92.3789 267.7584 15.01259402 70846
STARLINK-5984           
1 56329U 23058N   24217.98330701  .00002666  00000+0  21205-3 0  9992
2 56329  97.6537 218.0883 0001021 105.9625 254.1711 15.01266048 70366
STARLINK-5967           
1 56330U 23058P   24217.92060790  .00000227  00000+0  22269-4 0  9999
2 56330  97.6540 218.0189 0001560  92.7664 267.3739 15.01256609 70846
STARLINK-5991           
1 56331U 23058Q   24217.91110117  .00000765  00000+0  64132-4 0  9990
2 56331  97.6543 218.0285 0001417 184.2240 175.8972 15.01254341 70848
STARLINK-5093           
1 56332U 23058R   24217.92221341  .00005190  00000+0  40823-3 0  9991
2 56332  97.6536 218.0158 0002429  89.9330 270.2173 15.01271526 70842
STARLINK-5553           
1 56333U 23058S   24217.90924733  .00002602  00000+0  20708-3 0  9990
2 56333  97.6535 218.0311 0002134 179.3759 180.7468 15.01264110 70848
STARLINK-5548           
1 56334U 23058T   24217.91295158  .00000975  00000+0  80486-4 0  9995
2 56334  97.6542 218.0266 0000869 175.2446 184.8787 15.01256393 70840
STARLINK-5559           
1 56335U 23058U   24217.97058927  .00001439  00000+0  11660-3 0  9996
2 56335  97.6548 218.1035 0001996 158.0875 202.0435 15.01260764 70850
STARLINK-5562           
1 56336U 23058V   24217.98145514  .00001058  00000+0  86985-4 0  9997
2 56336  97.6547 218.0905 0000582 143.0792 217.0472 15.01258426 70362
STARLINK-5561           
1 56337U 23058W   24217.90578944  .00001358  00000+0  11034-3 0  9992
2 56337  97.6547 218.0350 0002560 166.7779 193.3513 15.01259323 70844
STARLINK-5554           
1 56338U 23058X   24218.24065596  .00001596  00000+0  12880-3 0  9999
2 56338  97.6536 218.3617 0002049 166.4288 193.6992 15.01266191 70403
STARLINK-5552           
1 56339U 23058Y   24217.96664137  .00002769  00000+0  22009-3 0  9991
2 56339  97.6543 218.1105 0001626 134.3913 225.7445 15.01266084 70851
STARLINK-5540           
1 56340U 23058Z   24218.23880292  .00006065  00000+0  47592-3 0  9993
2 56340  97.6536 218.3643 0002956 174.1165 186.0095 15.01294203 70407
STARLINK-5543           
1 56341U 23058AA  24218.23695024  .00002359  00000+0  18814-3 0  9998
2 56341  97.6539 218.3675 0002232 158.3667 201.7652 15.01269487 70404
STARLINK-5955           
1 56342U 23058AB  24217.96849919  .00029749  00000+0  23075-2 0  9998
2 56342  97.6538 218.1071 0002090 149.8331 210.3014 15.01316961 70360
STARLINK-5976           
1 56343U 23058AC  24217.96110962  .00000256  00000+0  24547-4 0  9997
2 56343  97.6602 218.1237 0001303 102.3787 257.7583 15.01240943 70858
STARLINK-5974           
1 56344U 23058AD  24217.96478941  .00001710  00000+0  13769-3 0  9991
2 56344  97.6556 218.1140 0001988 122.8852 237.2563 15.01263045 70858
STARLINK-5979           
1 56345U 23058AE  24217.95922375  .00001601  00000+0  12922-3 0  9995
2 56345  97.6560 218.1258 0001785 100.6386 259.5040 15.01268419 70368
STARLINK-5837           
1 56346U 23058AF  24217.96293747  .00001927  00000+0  15456-3 0  9997
2 56346  97.6570 218.1181 0001705 110.0564 250.0844 15.01262833 70856
STARLINK-5829           
1 56347U 23058AG  24217.95736237  .00003178  00000+0  25177-3 0  9994
2 56347  97.6576 218.1336 0001810  97.7772 262.3658 15.01282764 70364
